[
    {
        "Altitude(m)": 561284.343289937,
        "Argument of Periapsis(deg)": 0.026491964442854003,
        "Eccentricity": 0.0,
        "Inclination(deg)": 53.0,
        "Latitude(deg)": -26.836429151556796,
        "Longitude(deg)": -110.46586207982436,
        "Mean Anomaly(deg)": 325.82097147031027,
        "RAAN(deg)": 14.960573474112067,
        "Satellite Name": "Starlink Shell 1 83",
        "Satellite Number": 83,
        "Semi-Major Axis(m)": 6931778.249405717,
        "Time(s)": 760
    },
    {
        "Altitude(m)": 561112.1135001911,
        "Argument of Periapsis(deg)": 0.02684054292236524,
        "Eccentricity": 0.0,
        "Inclination(deg)": 53.0,
        "Latitude(deg)": -26.370981767403165,
        "Longitude(deg)": -110.03741030550417,
        "Mean Anomaly(deg)": 326.44780267386705,
        "RAAN(deg)": 14.960054704034594,
        "Satellite Name": "Starlink Shell 1 83",
        "Satellite Number": 83,
        "Semi-Major Axis(m)": 6931778.249405717,
        "Time(s)": 770
    },
    {
        "Altitude(m)": 560940.5566794261,
        "Argument of Periapsis(deg)": 0.027189121401876473,
        "Eccentricity": 0.0,
        "Inclination(deg)": 53.0,
        "Latitude(deg)": -25.903961463768013,
        "Longitude(deg)": -109.61269585778233,
        "Mean Anomaly(deg)": 327.0746338774238,
        "RAAN(deg)": 14.95953593395712,
        "Satellite Name": "Starlink Shell 1 83",
        "Satellite Number": 83,
        "Semi-Major Axis(m)": 6931778.249405717,
        "Time(s)": 780
    },
    {
        "Altitude(m)": 560769.7355539553,
        "Argument of Periapsis(deg)": 0.02753769988138771,
        "Eccentricity": 0.0,
        "Inclination(deg)": 53.0,
        "Latitude(deg)": -25.43541117093449,
        "Longitude(deg)": -109.19162495585428,
        "Mean Anomaly(deg)": 327.70146508098054,
        "RAAN(deg)": 14.95901716387965,
        "Satellite Name": "Starlink Shell 1 83",
        "Satellite Number": 83,
        "Semi-Major Axis(m)": 6931778.249405717,
        "Time(s)": 790
    },
    {
        "Altitude(m)": 560599.7123742017,
        "Argument of Periapsis(deg)": 0.02788627836089895,
        "Eccentricity": 0.0,
        "Inclination(deg)": 53.0,
        "Latitude(deg)": -24.96537293118493,
        "Longitude(deg)": -108.77410559660484,
        "Mean Anomaly(deg)": 328.3282962845372,
        "RAAN(deg)": 14.958498393802175,
        "Satellite Name": "Starlink Shell 1 83",
        "Satellite Number": 83,
        "Semi-Major Axis(m)": 6931778.249405717,
        "Time(s)": 800
    },
    {
        "Altitude(m)": 560430.548886821,
        "Argument of Periapsis(deg)": 0.02823485684041019,
        "Eccentricity": 0.0,
        "Inclination(deg)": 53.0,
        "Latitude(deg)": -24.493887925823312,
        "Longitude(deg)": -108.36004703848656,
        "Mean Anomaly(deg)": 328.9551274880939,
        "RAAN(deg)": 14.957979623724702,
        "Satellite Name": "Starlink Shell 1 83",
        "Satellite Number": 83,
        "Semi-Major Axis(m)": 6931778.249405717,
        "Time(s)": 810
    },
    {
        "Altitude(m)": 560262.3063069747,
        "Argument of Periapsis(deg)": 0.028583435319921423,
        "Eccentricity": 0.0,
        "Inclination(deg)": 53.0,
        "Latitude(deg)": -24.020996501682184,
        "Longitude(deg)": -107.94935928365834,
        "Mean Anomaly(deg)": 329.58195869165064,
        "RAAN(deg)": 14.957460853647229,
        "Satellite Name": "Starlink Shell 1 83",
        "Satellite Number": 83,
        "Semi-Major Axis(m)": 6931778.249405717,
        "Time(s)": 820
    },
    {
        "Altitude(m)": 560095.0452909407,
        "Argument of Periapsis(deg)": 0.028932013799432665,
        "Eccentricity": 0.0,
        "Inclination(deg)": 53.0,
        "Latitude(deg)": -23.546738197111182,
        "Longitude(deg)": -107.54195407141705,
        "Mean Anomaly(deg)": 330.20878989520736,
        "RAAN(deg)": 14.956942083569759,
        "Satellite Name": "Starlink Shell 1 83",
        "Satellite Number": 83,
        "Semi-Major Axis(m)": 6931778.249405717,
        "Time(s)": 830
    },
    {
        "Altitude(m)": 559928.8259089132,
        "Argument of Periapsis(deg)": 0.029280592278943897,
        "Eccentricity": 0.0,
        "Inclination(deg)": 53.0,
        "Latitude(deg)": -23.071151767446686,
        "Longitude(deg)": -107.13774435731986,
        "Mean Anomaly(deg)": 330.835621098764,
        "RAAN(deg)": 14.956423313492282,
        "Satellite Name": "Starlink Shell 1 83",
        "Satellite Number": 83,
        "Semi-Major Axis(m)": 6931778.249405717,
        "Time(s)": 840
    },
    {
        "Altitude(m)": 559763.707618115,
        "Argument of Periapsis(deg)": 0.029629170758455132,
        "Eccentricity": 0.0,
        "Inclination(deg)": 53.0,
        "Latitude(deg)": -22.594275209963076,
        "Longitude(deg)": -106.73664379101047,
        "Mean Anomaly(deg)": 331.4624523023208,
        "RAAN(deg)": 14.955904543414809,
        "Satellite Name": "Starlink Shell 1 83",
        "Satellite Number": 83,
        "Semi-Major Axis(m)": 6931778.249405717,
        "Time(s)": 850
    },
    {
        "Altitude(m)": 559599.7492361596,
        "Argument of Periapsis(deg)": 0.02997774923796637,
        "Eccentricity": 0.0,
        "Inclination(deg)": 53.0,
        "Latitude(deg)": -22.116145788306557,
        "Longitude(deg)": -106.33856787384727,
        "Mean Anomaly(deg)": 332.0892835058775,
        "RAAN(deg)": 14.955385773337339,
        "Satellite Name": "Starlink Shell 1 83",
        "Satellite Number": 83,
        "Semi-Major Axis(m)": 6931778.249405717,
        "Time(s)": 860
    },
    {
        "Altitude(m)": 559437.0089147864,
        "Argument of Periapsis(deg)": 0.030326327717477602,
        "Eccentricity": 0.0,
        "Inclination(deg)": 53.0,
        "Latitude(deg)": -21.636800056416803,
        "Longitude(deg)": -105.94343259402234,
        "Mean Anomaly(deg)": 332.7161147094342,
        "RAAN(deg)": 14.954867003259865,
        "Satellite Name": "Starlink Shell 1 83",
        "Satellite Number": 83,
        "Semi-Major Axis(m)": 6931778.249405717,
        "Time(s)": 870
    },
    {
        "Altitude(m)": 559275.5441138202,
        "Argument of Periapsis(deg)": 0.030674906196988847,
        "Eccentricity": 0.0,
        "Inclination(deg)": 53.0,
        "Latitude(deg)": -21.15627388193931,
        "Longitude(deg)": -105.55115558219666,
        "Mean Anomaly(deg)": 333.34294591299096,
        "RAAN(deg)": 14.954348233182392,
        "Satellite Name": "Starlink Shell 1 83",
        "Satellite Number": 83,
        "Semi-Major Axis(m)": 6931778.249405717,
        "Time(s)": 880
    },
    {
        "Altitude(m)": 559115.4115755165,
        "Argument of Periapsis(deg)": 0.031023484676500086,
        "Eccentricity": 0.0,
        "Inclination(deg)": 53.0,
        "Latitude(deg)": -20.674602469135962,
        "Longitude(deg)": -105.16165558532224,
        "Mean Anomaly(deg)": 333.9697771165476,
        "RAAN(deg)": 14.953829463104922,
        "Satellite Name": "Starlink Shell 1 83",
        "Satellite Number": 83,
        "Semi-Major Axis(m)": 6931778.249405717,
        "Time(s)": 890
    },
    {
        "Altitude(m)": 558956.6672992392,
        "Argument of Periapsis(deg)": 0.03137206315601132,
        "Eccentricity": 0.0,
        "Inclination(deg)": 53.0,
        "Latitude(deg)": -20.19182038129906,
        "Longitude(deg)": -104.77485193971619,
        "Mean Anomaly(deg)": 334.59660832010434,
        "RAAN(deg)": 14.953310693027447,
        "Satellite Name": "Starlink Shell 1 83",
        "Satellite Number": 83,
        "Semi-Major Axis(m)": 6931778.249405717,
        "Time(s)": 900
    },
    {
        "Altitude(m)": 558799.3665164844,
        "Argument of Periapsis(deg)": 0.03172064163552255,
        "Eccentricity": 0.0,
        "Inclination(deg)": 53.0,
        "Latitude(deg)": -19.707961562676747,
        "Longitude(deg)": -104.39066555634811,
        "Mean Anomaly(deg)": 335.22343952366106,
        "RAAN(deg)": 14.952791922949974,
        "Satellite Name": "Starlink Shell 1 83",
        "Satellite Number": 83,
        "Semi-Major Axis(m)": 6931778.249405717,
        "Time(s)": 910
    },
    {
        "Altitude(m)": 558643.563666261,
        "Argument of Periapsis(deg)": 0.0320692201150338,
        "Eccentricity": 0.0,
        "Inclination(deg)": 53.0,
        "Latitude(deg)": -19.223059359918693,
        "Longitude(deg)": -104.00901839266922,
        "Mean Anomaly(deg)": 335.8502707272178,
        "RAAN(deg)": 14.9522731528725,
        "Satellite Name": "Starlink Shell 1 83",
        "Satellite Number": 83,
        "Semi-Major Axis(m)": 6931778.249405717,
        "Time(s)": 920
    },
    {
        "Altitude(m)": 558489.3123708827,
        "Argument of Periapsis(deg)": 0.032417798594545036,
        "Eccentricity": 0.0,
        "Inclination(deg)": 53.0,
        "Latitude(deg)": -18.73714654305091,
        "Longitude(deg)": -103.62983292393183,
        "Mean Anomaly(deg)": 336.4771019307745,
        "RAAN(deg)": 14.95175438279503,
        "Satellite Name": "Starlink Shell 1 83",
        "Satellite Number": 83,
        "Semi-Major Axis(m)": 6931778.249405717,
        "Time(s)": 930
    },
    {
        "Altitude(m)": 558336.6654121225,
        "Argument of Periapsis(deg)": 0.03276637707405627,
        "Eccentricity": 0.0,
        "Inclination(deg)": 53.0,
        "Latitude(deg)": -18.25025532598776,
        "Longitude(deg)": -103.2530331269393,
        "Mean Anomaly(deg)": 337.1039331343312,
        "RAAN(deg)": 14.951235612717557,
        "Satellite Name": "Starlink Shell 1 83",
        "Satellite Number": 83,
        "Semi-Major Axis(m)": 6931778.249405717,
        "Time(s)": 940
    }
]